{
    "links": {
        "self": "http://www.neowsapp.com/rest/v1/neo/3393170?api_key=iIulBulltgU6a56xZRHN4H3l9WmuAYTsLGpBGhQ2"
    },
    "id": "3393170",
    "neo_reference_id": "3393170",
    "name": "(2007 VR29)",
    "designation": "2007 VR29",
    "nasa_jpl_url": "http://ssd.jpl.nasa.gov/sbdb.cgi?sstr=3393170",
    "absolute_magnitude_h": 24.5,
    "estimated_diameter": {
        "kilometers": {
            "estimated_diameter_min": 0.0334622374,
            "estimated_diameter_max": 0.0748238376
        },
        "meters": {
            "estimated_diameter_min": 33.4622374455,
            "estimated_diameter_max": 74.8238376074
        },
        "miles": {
            "estimated_diameter_min": 0.0207924639,
            "estimated_diameter_max": 0.0464933628
        },
        "feet": {
            "estimated_diameter_min": 109.7842471007,
            "estimated_diameter_max": 245.4850393757
        }
    },
    "is_potentially_hazardous_asteroid": false,
    "close_approach_data": [
        {
            "close_approach_date": "1914-10-14",
            "close_approach_date_full": "1914-Oct-14 13:28",
            "epoch_date_close_approach": -1742466720000,
            "relative_velocity": {
                "kilometers_per_second": "19.060370957",
                "kilometers_per_hour": "68617.3354453483",
                "miles_per_hour": "42636.1437938055"
            },
            "miss_distance": {
                "astronomical": "0.3886302987",
                "lunar": "151.1771861943",
                "kilometers": "58138264.902983769",
                "miles": "36125442.6516792522"
            },
            "orbiting_body": "Earth"
        },
        {
            "close_approach_date": "2007-11-13",
            "close_approach_date_full": "2007-Nov-13 16:05",
            "epoch_date_close_approach": 1194969900000,
            "relative_velocity": {
                "kilometers_per_second": "9.3407293738",
                "kilometers_per_hour": "33626.6257455895",
                "miles_per_hour": "20894.277536197"
            },
            "miss_distance": {
                "astronomical": "0.0494684155",
                "lunar": "19.2432136295",
                "kilometers": "7400369.591074985",
                "miles": "4598376.434345393"
            },
            "orbiting_body": "Earth"
        }
    ],
    "orbital_data": {
        "orbit_id": "9",
        "orbit_determination_date": "2017-04-06 09:05:19",
        "first_observation_date": "2007-11-06",
        "last_observation_date": "2007-11-20",
        "data_arc_in_days": 14,
        "observations_used": 22,
        "orbit_uncertainty": "8",
        "minimum_orbit_intersection": ".0468058",
        "jupiter_tisserand_invariant": "3.892",
        "epoch_osculation": "2454413.5",
        "eccentricity": ".4541495384877966",
        "semi_major_axis": "1.817608589578132",
        "inclination": "12.28727044735383",
        "ascending_node_longitude": "222.1353945569184",
        "orbital_period": "895.0534615007341",
        "perihelion_distance": ".9921424874697683",
        "perihelion_argument": "214.6463007781367",
        "aphelion_distance": "2.643074691686496",
        "perihelion_time": "2454440.842375466940",
        "mean_anomaly": "349.0026064458829",
        "mean_motion": ".402210611415757",
        "equinox": "J2000",
        "orbit_class": {
            "orbit_class_type": "APO",
            "orbit_class_description": "Near-Earth asteroid orbits which cross the Earth’s orbit similar to that of 1862 Apollo",
            "orbit_class_range": "a (semi-major axis) > 1.0 AU; q (perihelion) < 1.017 AU"
        }
    },
    "is_sentry_object": false
}